[Satellite]
VERSION=1.1
NAME=ESTCUBE 1
NICKNAME=ESTCUBE 1
TLE1=1 39161U 13021C   15055.49048247  .00001500  00000-0  25350-3 0  9995
TLE2=2 39161  98.0774 139.4065 0008980 318.6748  41.3781 14.70833172 96675
